[{"OBJECT_NAME":"STARLINK-31608","OBJECT_ID":"2024-062X","EPOCH":"2026-03-09T17:28:32.981664","MEAN_MOTION":15.30194694,"ECCENTRICITY":0.00010684,"INCLINATION":53.159,"RA_OF_ASC_NODE":255.7398,"ARG_OF_PERICENTER":86.7838,"MEAN_ANOMALY":273.3285,"EPHEMERIS_TYPE":0,"CLASSIFICATION_TYPE":"U","NORAD_CAT_ID":59397,"ELEMENT_SET_NO":999,"REV_AT_EPOCH":10962,"BSTAR":1.5270737e-5,"MEAN_MOTION_DOT":9.3e-7,"MEAN_MOTION_DDOT":0},{"OBJECT_NAME":"SIMSAT 2","OBJECT_ID":"2000-026B","EPOCH":"2026-03-09T20:25:01.673184","MEAN_MOTION":15.29036787,"ECCENTRICITY":0.00037035,"INCLINATION":86.3514,"RA_OF_ASC_NODE":176.4271,"ARG_OF_PERICENTER":287.9875,"MEAN_ANOMALY":72.0969,"EPHEMERIS_TYPE":0,"CLASSIFICATION_TYPE":"U","NORAD_CAT_ID":26366,"ELEMENT_SET_NO":999,"REV_AT_EPOCH":42803,"BSTAR":0.00013465771,"MEAN_MOTION_DOT":3.833e-5,"MEAN_MOTION_DDOT":0}]
